{
  "type": "FeatureCollection",
  "features": [
    {
      "type": "Feature",
      "properties": {
        "norad_id": 36254,
        "name": "FENGYUN 1C DEB",
        "group": "fengyun-1c-debris",
        "lat": 6.9109842342980805,
        "lon": 124.1050416860791,
        "alt_km": 535.9013080983586,
        "timestamp": "2025-12-14T09:36:23.325149+00:00",
        "meta_object_name": "FENGYUN 1C DEB",
        "meta_object_id": "1999-025DWF",
        "meta_epoch": "2025-12-05T14:18:33.750144",
        "meta_mean_motion": 15.16014702,
        "meta_eccentricity": 0.00460473,
        "meta_inclination": 99.5277,
        "meta_ra_of_asc_node": 291.891,
        "meta_arg_of_pericenter": 66.6494,
        "meta_mean_anomaly": 293.9567,
        "meta_ephemeris_type": 0,
        "meta_classification_type": "U",
        "meta_norad_cat_id": 36254,
        "meta_element_set_no": 999,
        "meta_rev_at_epoch": 60668,
        "meta_bstar": 0.0055743559,
        "meta_mean_motion_dot": 0.00111504,
        "meta_mean_motion_ddot": 0,
        "tle_line1": "1 36254U 99025DWF 25339.59622396  .00111504  00000+0  55744-2 0  9997",
        "tle_line2": "2 36254  99.5277 291.8910 0046047  66.6494 293.9567 15.16014702606681"
      },
      "geometry": {
        "type": "Point",
        "coordinates": [
          124.1050416860791,
          6.9109842342980805
        ]
      }
    },
    {
      "type": "Feature",
      "properties": {
        "norad_id": 36255,
        "name": "FENGYUN 1C DEB",
        "group": "fengyun-1c-debris",
        "lat": 36.37016178029852,
        "lon": 96.24154544144375,
        "alt_km": 723.2989215865218,
        "timestamp": "2025-12-14T09:36:23.325159+00:00",
        "meta_object_name": "FENGYUN 1C DEB",
        "meta_object_id": "1999-025DWG",
        "meta_epoch": "2025-12-11T01:01:55.157664",
        "meta_mean_motion": 14.36557249,
        "meta_eccentricity": 0.00638,
        "meta_inclination": 99.4341,
        "meta_ra_of_asc_node": 265.5336,
        "meta_arg_of_pericenter": 168.3873,
        "meta_mean_anomaly": 261.8738,
        "meta_ephemeris_type": 0,
        "meta_classification_type": "U",
        "meta_norad_cat_id": 36255,
        "meta_element_set_no": 999,
        "meta_rev_at_epoch": 63986,
        "meta_bstar": 0.00107433,
        "meta_mean_motion_dot": 3.181e-05,
        "meta_mean_motion_ddot": 0,
        "tle_line1": "1 36255U 99025DWG 25345.04299951  .00003181  00000+0  10743-2 0  9993",
        "tle_line2": "2 36255  99.4341 265.5336 0063800 168.3873 261.8738 14.36557249639869"
      },
      "geometry": {
        "type": "Point",
        "coordinates": [
          96.24154544144375,
          36.37016178029852
        ]
      }
    },
    {
      "type": "Feature",
      "properties": {
        "norad_id": 36258,
        "name": "FENGYUN 1C DEB",
        "group": "fengyun-1c-debris",
        "lat": 45.57876721770165,
        "lon": -152.51535333075103,
        "alt_km": 522.7546515481899,
        "timestamp": "2025-12-14T09:36:23.325169+00:00",
        "meta_object_name": "FENGYUN 1C DEB",
        "meta_object_id": "1999-025DWK",
        "meta_epoch": "2025-12-13T08:35:20.219424",
        "meta_mean_motion": 14.74856661,
        "meta_eccentricity": 0.01735531,
        "meta_inclination": 99.0875,
        "meta_ra_of_asc_node": 16.9153,
        "meta_arg_of_pericenter": 123.7629,
        "meta_mean_anomaly": 238.0246,
        "meta_ephemeris_type": 0,
        "meta_classification_type": "U",
        "meta_norad_cat_id": 36258,
        "meta_element_set_no": 999,
        "meta_rev_at_epoch": 90831,
        "meta_bstar": 0.00050800074,
        "meta_mean_motion_dot": 4.276e-05,
        "meta_mean_motion_ddot": 0,
        "tle_line1": "1 36258U 99025DWK 25347.35787291  .00004276  00000+0  50800-3 0  9996",
        "tle_line2": "2 36258  99.0875  16.9153 0173553 123.7629 238.0246 14.74856661908317"
      },
      "geometry": {
        "type": "Point",
        "coordinates": [
          -152.51535333075103,
          45.57876721770165
        ]
      }
    },
    {
      "type": "Feature",
      "properties": {
        "norad_id": 36260,
        "name": "FENGYUN 1C DEB",
        "group": "fengyun-1c-debris",
        "lat": -68.50191185653924,
        "lon": 13.30019865168813,
        "alt_km": 840.5942686337921,
        "timestamp": "2025-12-14T09:36:23.325179+00:00",
        "meta_object_name": "FENGYUN 1C DEB",
        "meta_object_id": "1999-025DWM",
        "meta_epoch": "2025-12-11T10:40:46.930368",
        "meta_mean_motion": 14.15371689,
        "meta_eccentricity": 0.0014965,
        "meta_inclination": 98.6615,
        "meta_ra_of_asc_node": 347.6617,
        "meta_arg_of_pericenter": 253.4833,
        "meta_mean_anomaly": 106.4697,
        "meta_ephemeris_type": 0,
        "meta_classification_type": "U",
        "meta_norad_cat_id": 36260,
        "meta_element_set_no": 999,
        "meta_rev_at_epoch": 87790,
        "meta_bstar": 0.00027549941,
        "meta_mean_motion_dot": 4.95e-06,
        "meta_mean_motion_ddot": 0,
        "tle_line1": "1 36260U 99025DWM 25345.44498762  .00000495  00000+0  27550-3 0  9994",
        "tle_line2": "2 36260  98.6615 347.6617 0014965 253.4833 106.4697 14.15371689877900"
      },
      "geometry": {
        "type": "Point",
        "coordinates": [
          13.30019865168813,
          -68.50191185653924
        ]
      }
    },
    {
      "type": "Feature",
      "properties": {
        "norad_id": 36261,
        "name": "FENGYUN 1C DEB",
        "group": "fengyun-1c-debris",
        "lat": -10.980981010344882,
        "lon": -116.94032555530448,
        "alt_km": 1048.9883404297907,
        "timestamp": "2025-12-14T09:36:23.325189+00:00",
        "meta_object_name": "FENGYUN 1C DEB",
        "meta_object_id": "1999-025DWN",
        "meta_epoch": "2025-12-10T12:51:44.703648",
        "meta_mean_motion": 13.45476909,
        "meta_eccentricity": 0.0355433,
        "meta_inclination": 101.3651,
        "meta_ra_of_asc_node": 236.4477,
        "meta_arg_of_pericenter": 80.3414,
        "meta_mean_anomaly": 283.7668,
        "meta_ephemeris_type": 0,
        "meta_classification_type": "U",
        "meta_norad_cat_id": 36261,
        "meta_element_set_no": 999,
        "meta_rev_at_epoch": 84403,
        "meta_bstar": 0.00073435,
        "meta_mean_motion_dot": 5.84e-06,
        "meta_mean_motion_ddot": 0,
        "tle_line1": "1 36261U 99025DWN 25344.53593407  .00000584  00000+0  73435-3 0  9998",
        "tle_line2": "2 36261 101.3651 236.4477 0355433  80.3414 283.7668 13.45476909844030"
      },
      "geometry": {
        "type": "Point",
        "coordinates": [
          -116.94032555530448,
          -10.980981010344882
        ]
      }
    },
    {
      "type": "Feature",
      "properties": {
        "norad_id": 36262,
        "name": "FENGYUN 1C DEB",
        "group": "fengyun-1c-debris",
        "lat": 21.975808079129116,
        "lon": 52.59794693411093,
        "alt_km": 815.4554914163464,
        "timestamp": "2025-12-14T09:36:23.325201+00:00",
        "meta_object_name": "FENGYUN 1C DEB",
        "meta_object_id": "1999-025DWP",
        "meta_epoch": "2025-12-08T09:54:26.531712",
        "meta_mean_motion": 14.27796215,
        "meta_eccentricity": 0.00599528,
        "meta_inclination": 98.9618,
        "meta_ra_of_asc_node": 222.8075,
        "meta_arg_of_pericenter": 288.1373,
        "meta_mean_anomaly": 71.3285,
        "meta_ephemeris_type": 0,
        "meta_classification_type": "U",
        "meta_norad_cat_id": 36262,
        "meta_element_set_no": 999,
        "meta_rev_at_epoch": 89435,
        "meta_bstar": 0.0005578287,
        "meta_mean_motion_dot": 1.358e-05,
        "meta_mean_motion_ddot": 0,
        "tle_line1": "1 36262U 99025DWP 25342.41280708  .00001358  00000+0  55783-3 0  9997",
        "tle_line2": "2 36262  98.9618 222.8075 0059952 288.1373  71.3285 14.27796215894359"
      },
      "geometry": {
        "type": "Point",
        "coordinates": [
          52.59794693411093,
          21.975808079129116
        ]
      }
    },
    {
      "type": "Feature",
      "properties": {
        "norad_id": 36263,
        "name": "FENGYUN 1C DEB",
        "group": "fengyun-1c-debris",
        "lat": 73.16331729204782,
        "lon": -162.02862004564298,
        "alt_km": 758.3714892011922,
        "timestamp": "2025-12-14T09:36:23.325211+00:00",
        "meta_object_name": "FENGYUN 1C DEB",
        "meta_object_id": "1999-025DWQ",
        "meta_epoch": "2025-12-11T09:49:43.311648",
        "meta_mean_motion": 14.456173,
        "meta_eccentricity": 0.00362114,
        "meta_inclination": 98.9987,
        "meta_ra_of_asc_node": 226.3791,
        "meta_arg_of_pericenter": 269.226,
        "meta_mean_anomaly": 90.478,
        "meta_ephemeris_type": 0,
        "meta_classification_type": "U",
        "meta_norad_cat_id": 36263,
        "meta_element_set_no": 999,
        "meta_rev_at_epoch": 87966,
        "meta_bstar": 0.0037241412,
        "meta_mean_motion_dot": 0.00013243,
        "meta_mean_motion_ddot": 0,
        "tle_line1": "1 36263U 99025DWQ 25345.40952907  .00013243  00000+0  37241-2 0  9991",
        "tle_line2": "2 36263  98.9987 226.3791 0036211 269.2260  90.4780 14.45617300879667"
      },
      "geometry": {
        "type": "Point",
        "coordinates": [
          -162.02862004564298,
          73.16331729204782
        ]
      }
    }
  ]
}